OBJECT_NAME,OBJECT_ID,EPOCH,MEAN_MOTION,ECCENTRICITY,INCLINATION,RA_OF_ASC_NODE,ARG_OF_PERICENTER,MEAN_ANOMALY,EPHEMERIS_TYPE,CLASSIFICATION_TYPE,NORAD_CAT_ID,ELEMENT_SET_NO,REV_AT_EPOCH,BSTAR,MEAN_MOTION_DOT,MEAN_MOTION_DDOT
GOMX-1,2013-066Q,2026-06-14T04:33:22.920768,14.69450244,.0130187,97.6484,5.8423,87.0635,274.5462,0,U,39430,999,66947,.30268E-3,.1992E-4,0
CUBEBUG-2 (LO-74),2013-066AA,2026-06-14T02:46:43.226976,14.93738647,.0058614,97.8903,114.0809,38.9303,321.6115,0,U,39440,999,67653,.41941E-3,.4533E-4,0
NEE-02 KRYSAOR,2013-066AB,2026-06-14T02:42:45.557856,14.86606396,.0067709,97.8892,104.3496,80.0536,280.8313,0,U,39441,999,67574,.27928E-3,.2524E-4,0
FUNCUBE-1 (AO-73),2013-066AE,2026-06-13T20:59:27.159360,15.09452478,.00353773,97.8267,136.2511,212.6416,147.2626,0,U,39444,999,67916,.45803274E-3,.7372E-4,0
UWE-3,2013-066AG,2026-06-13T19:21:45.292608,14.96999955,.00481152,97.8688,120.8577,332.4032,27.4636,0,U,39446,999,67707,.38954975E-3,.4526E-4,0
SMDC ONE 2.4,2013-072H,2026-06-14T02:33:37.610784,15.18129858,.014485,120.4929,340.1909,15.7431,344.8084,0,U,39469,999,11736,.39386E-3,.10276E-3,0
COSMOS 2488 (RODNIK-S 7),2013-076A,2026-06-14T03:21:33.602400,12.42906040,.0020827,82.4826,170.5932,101.5462,258.7958,0,U,39483,999,56551,.80074E-3,.121E-5,0
COSMOS 2489 (RODNIK-S 8),2013-076B,2026-06-14T02:45:45.378720,12.42879606,.0022651,82.4864,171.9864,101.5649,258.7975,0,U,39484,999,56556,.35801E-3,.6E-6,0
COSMOS 2490 (RODNIK-S 9),2013-076C,2026-06-14T05:57:06.227136,12.42878118,.0022682,82.4810,169.9725,116.2500,244.0914,0,U,39485,999,56551,.24746E-3,.44E-6,0
KAZEOSAT 1,2014-024A,2026-06-14T04:14:46.175712,14.42078684,.0001378,98.3211,237.6986,75.0415,285.0927,0,U,39731,999,63812,.37533E-4,.81E-6,0
COSMOS 2496 (RODNIK-S 10),2014-028A,2026-06-14T04:55:56.821728,12.42878485,.0021315,82.4444,110.5982,84.9831,275.3680,0,U,39761,999,54714,-.13642E-3,-.9E-7,0
COSMOS 2497 (RODNIK-S 11),2014-028B,2026-06-14T04:20:24.386784,12.42894072,.0021888,82.4491,112.3022,80.3062,280.0489,0,U,39762,999,54714,-.14375E-3,-.1E-6,0
COSMOS 2498 (RODNIK-S 12),2014-028C,2026-06-14T03:48:27.133632,12.42979989,.0022604,82.4452,110.8045,79.9973,280.3656,0,U,39763,999,54717,-.40456E-3,-.46E-6,0
HODOYOSHI-4,2014-033B,2026-06-14T03:25:33.203424,14.88124313,.0022688,97.5450,350.1126,319.1645,40.7871,0,U,40011,999,64835,.20591E-3,.1851E-4,0
UNISAT-6,2014-033C,2026-06-14T02:35:07.884960,14.88231889,.0046328,97.7871,317.8739,79.1987,281.4440,0,U,40012,999,64570,.33204E-3,.307E-4,0
DEIMOS-2,2014-033D,2026-06-14T04:02:52.832256,14.93717441,.0001729,97.5841,39.7641,48.9566,311.1804,0,U,40013,999,63727,.88743E-4,.885E-5,0
BUGSAT-1 (TITA),2014-033E,2026-06-14T04:44:00.693600,15.15559253,.0027771,98.0433,257.5702,188.8029,171.2718,0,U,40014,999,65538,.39129E-3,.742E-4,0
SAUDISAT 4,2014-033G,2026-06-14T05:03:31.540608,14.79541128,.0046225,97.7578,311.4485,83.3857,277.2614,0,U,40016,999,64563,.88582E-4,.623E-5,0
APRIZESAT 9,2014-033J,2026-06-13T22:47:28.164192,14.74210615,.0065455,97.9056,298.2274,209.6629,150.0862,0,U,40018,999,64308,.10025E-3,.632E-5,0
BRITE-CA1 (TORONTO),2014-033L,2026-06-13T21:53:45.705120,14.72672671,.0077282,97.9734,293.9007,287.6929,71.5853,0,U,40020,999,64173,.10669E-3,.658E-5,0
DUCHIFAT-1,2014-033M,2026-06-14T03:26:03.729408,15.64039026,.0003417,98.0474,223.8762,119.3968,240.7631,0,U,40021,999,65527,.11822E-2,.112865E-2,0
NANOSATC-BR1,2014-033Q,2026-06-14T01:39:28.149120,15.31368944,.0004118,98.0722,197.1804,171.0394,189.0919,0,U,40024,999,65350,.57336E-3,.17308E-3,0
